CUTE-1 (CO-55)          
1 27844U 03031E   26201.47499926  .00000146  00000+0  81840-4 0  9998
2 27844  98.6745 209.6162 0010868  89.1638 271.0786 14.24353565196410
CUBESAT XI-IV (CO-57)   
1 27848U 03031J   26201.48019381  .00000116  00000+0  70115-4 0  9996
2 27848  98.6776 209.3071 0010684 105.6000 254.6359 14.23636281196115
CUBESAT XI-V            
1 28895U 05043F   26201.35563708  .00000706  00000+0  11886-3 0  9991
2 28895  98.3023 357.6819 0015362 100.1286 260.1655 14.72709962106631
CUTE-1.7+APD II (CO-65) 
1 32785U 08021C   26201.58961483  .00002363  00000+0  15066-3 0  9995
2 32785  97.8299 183.7142 0006847 276.7927  83.2522 15.09727184990231
CANX-2                  
1 32790U 08021H   26201.38245192  .00001605  00000+0  11514-3 0  9993
2 32790  97.8660 181.8145 0008621 297.1635  62.8712 15.05822312989806
SEEDS II (CO-66)        
1 32791U 08021J   26201.41840544  .00010808  00000+0  33333-3 0  9998
2 32791  97.7536 200.9319 0003658 145.6497 214.4982 15.33774165992386
SWISSCUBE               
1 35932U 09051B   26201.55567777  .00000502  00000+0  10867-3 0  9998
2 35932  98.4001 110.0215 0008040 104.8066 255.4026 14.62536612894037
BEESAT-1                
1 35933U 09051C   26201.51413059  .00000407  00000+0  91384-4 0  9996
2 35933  98.3928 109.5446 0006388 116.0410 244.1449 14.61766725894050
ITUPSAT1                
1 35935U 09051E   26201.53425090  .00000377  00000+0  87689-4 0  9997
2 35935  98.4013 108.7212 0008387 128.2730 231.9226 14.60483294893604
TISAT 1                 
1 36799U 10035E   26201.35572227  .00012918  00000+0  40954-3 0  9992
2 36799  98.0710 150.8814 0004748 109.8312 250.3441 15.32853019872783
STRAND-1                
1 39090U 13009E   26201.47425459  .00000134  00000+0  59206-4 0  9998
2 39090  98.3940  20.8921 0009644 126.9146 233.2926 14.37180722701842
BRITE-AUSTRIA           
1 39091U 13009F   26201.43193589  .00000073  00000+0  39374-4 0  9997
2 39091  98.4013  20.0477 0011031 136.1688 224.0376 14.36553717701822
NEE-01 PEGASO           
1 39151U 13018B   26200.88835855  .00001496  00000+0  14668-3 0  9999
2 39151  98.1265 346.1295 0013564  60.4464 299.8105 14.93802517715585
POPACS 2                
1 39269U 13055E   26201.44863673  .00014754 -92460-6  24005-3 0  9998
2 39269  80.9906 106.1023 0414501  87.0343 277.8215 14.92165602668172
POPACS 3                
1 39270U 13055F   26201.30018554  .00007300  00000+0  17383-3 0  9996
2 39270  81.0011 193.2626 0548110 329.0952  27.9008 14.56740646643374
ZACUBE-1 (TSHEPISOSAT)  
1 39417U 13066B   26201.39992409  .00001529  00000+0  12117-3 0  9997
2 39417  97.8001 163.8983 0044083 138.5230 221.9353 15.01343884685719
WNISAT-1                
1 39423U 13066H   26201.35693499  .00000618  00000+0  12008-3 0  9994
2 39423  97.7243 348.1656 0164130 127.1606 234.4712 14.58126792671569
TRITON-1                
1 39427U 13066M   26201.58753314  .00001238  00000+0  15260-3 0  9998
2 39427  97.8215 110.6303 0091005 124.7371 236.2454 14.81807509679037
GOMX-1                  
1 39430U 13066Q   26201.61831000  .00000517  00000+0  84826-4 0  9999
2 39430  97.6465  39.9712 0127778 330.7454  28.6638 14.69549169674821
CUBEBUG-2 (LO-74)       
1 39440U 13066AA  26201.62029127  .00001916  00000+0  18025-3 0  9991
2 39440  97.8921 150.7488 0055525 276.9661  82.5245 14.93989557681988
NEE-02 KRYSAOR          
1 39441U 13066AB  26201.39018315  .00001148  00000+0  13068-3 0  9992
2 39441  97.8896 140.3724 0064959 322.0675  37.5974 14.86751607681138
FUNCUBE-1 (AO-73)       
1 39444U 13066AE  26201.39573608  .00004491  00000+0  27700-3 0  9998
2 39444  97.8300 173.5476 0038067  90.7809 269.7781 15.09861960684679
UWE-3                   
1 39446U 13066AG  26200.83144104  .00002164  00000+0  18817-3 0  9997
2 39446  97.8723 157.1335 0047670 208.5998 151.2608 14.97218739682464
BRITE-CA1 (TORONTO)     
1 40020U 14033L   26201.60199635  .00000597  00000+0  97032-4 0  9992
2 40020  97.9778 329.9216 0078889 168.9780 191.3179 14.72729188647137
DUCHIFAT-1              
1 40021U 14033M   26201.45515877  .00103989  00000+0  78793-3 0  9997
2 40021  98.0409 265.4893 0003399 227.9496 132.1476 15.72052758660962
NANOSATC-BR1            
1 40024U 14033Q   26201.05966085  .00009772  00000+0  31482-3 0  9996
2 40024  98.0707 236.3841 0005139  85.0134 275.1692 15.32422309659013
QB50P1                  
1 40025U 14033R   26201.49323626  .00004584  00000+0  22434-3 0  9996
2 40025  98.0973 214.9866 0010529 109.2595 250.9778 15.18713788658087
QB50P2                  
1 40032U 14033Y   26200.98401997  .00003453  00000+0  18594-3 0  9991
2 40032  98.0770 199.9180 0009191  70.5042 289.7181 15.15543519657639
PERSEUS-M2              
1 40037U 14033AD  26201.64990080 -.00000243  00000+0 -16325-4 0  9993
2 40037  97.9983 152.8776 0011337 181.7184 178.4000 14.95591119655788
PERSEUS-M1              
1 40039U 14033AF  26201.35254876  .00000451  00000+0  45953-4 0  9997
2 40039  97.9654 146.0332 0011289 179.4701 180.6533 14.95724944655592
