OBJECT_NAME,OBJECT_ID,EPOCH,MEAN_MOTION,ECCENTRICITY,INCLINATION,RA_OF_ASC_NODE,ARG_OF_PERICENTER,MEAN_ANOMALY,EPHEMERIS_TYPE,CLASSIFICATION_TYPE,NORAD_CAT_ID,ELEMENT_SET_NO,REV_AT_EPOCH,BSTAR,MEAN_MOTION_DOT,MEAN_MOTION_DDOT
CUTE-1 (CO-55),2003-031E,2026-07-20T11:23:59.936064,14.24353565,.00108681,98.6745,209.6162,89.1638,271.0786,0,U,27844,999,19641,.81840072E-4,.146E-5,0
CUBESAT XI-IV (CO-57),2003-031J,2026-07-20T11:31:28.745184,14.23636281,.00106849,98.6776,209.3071,105.6000,254.6359,0,U,27848,999,19611,.7011484E-4,.116E-5,0
CUBESAT XI-V,2005-043F,2026-07-20T08:32:07.043712,14.72709962,.00153624,98.3023,357.6819,100.1286,260.1655,0,U,28895,999,10663,.11885758E-3,.706E-5,0
CUTE-1.7+APD II (CO-65),2008-021C,2026-07-20T14:09:02.721312,15.09727184,.00068471,97.8299,183.7142,276.7927,83.2522,0,U,32785,999,99023,.1506605E-3,.2363E-4,0
CANX-2,2008-021H,2026-07-20T09:10:43.845888,15.05822312,.00086215,97.8660,181.8145,297.1635,62.8712,0,U,32790,999,98980,.11514029E-3,.1605E-4,0
SEEDS II (CO-66),2008-021J,2026-07-20T10:02:30.230016,15.33774165,.00036582,97.7536,200.9319,145.6497,214.4982,0,U,32791,999,99238,.33333244E-3,.10808E-3,0
SWISSCUBE,2009-051B,2026-07-20T13:20:10.559328,14.62536612,.00080407,98.4001,110.0215,104.8066,255.4026,0,U,35932,999,89403,.10866598E-3,.502E-5,0
BEESAT-1,2009-051C,2026-07-20T12:20:20.882976,14.61766725,.00063882,98.3928,109.5446,116.0410,244.1449,0,U,35933,999,89405,.91384419E-4,.407E-5,0
ITUPSAT1,2009-051E,2026-07-20T12:49:19.277760,14.60483294,.00083873,98.4013,108.7212,128.2730,231.9226,0,U,35935,999,89360,.87688586E-4,.377E-5,0
TISAT 1,2010-035E,2026-07-20T08:32:14.404128,15.32853019,.00047486,98.0710,150.8814,109.8312,250.3441,0,U,36799,999,87278,.40954216E-3,.12918E-3,0
STRAND-1,2013-009E,2026-07-20T11:22:55.596576,14.37180722,.00096444,98.3940,20.8921,126.9146,233.2926,0,U,39090,999,70184,.59206383E-4,.134E-5,0
BRITE-AUSTRIA,2013-009F,2026-07-20T10:21:59.260896,14.36553717,.00110319,98.4013,20.0477,136.1688,224.0376,0,U,39091,999,70182,.39374091E-4,.73E-6,0
NEE-01 PEGASO,2013-018B,2026-07-19T21:19:14.178720,14.93802517,.00135647,98.1265,346.1295,60.4464,299.8105,0,U,39151,999,71558,.14667651E-3,.1496E-4,0
POPACS 2,2013-055E,2026-07-20T10:46:02.213472,14.92165602,.04145015,80.9906,106.1023,87.0343,277.8215,0,U,39269,999,66817,.24004627E-3,.14754E-3,-.924604E-6
POPACS 3,2013-055F,2026-07-20T07:12:16.030656,14.56740646,.05481109,81.0011,193.2626,329.0952,27.9008,0,U,39270,999,64337,.17382861E-3,.73E-4,0
ZACUBE-1 (TSHEPISOSAT),2013-066B,2026-07-20T09:35:53.441376,15.01343884,.00440835,97.8001,163.8983,138.5230,221.9353,0,U,39417,999,68571,.1211726E-3,.1529E-4,0
WNISAT-1,2013-066H,2026-07-20T08:33:59.183136,14.58126792,.01641302,97.7243,348.1656,127.1606,234.4712,0,U,39423,999,67156,.12008224E-3,.618E-5,0
TRITON-1,2013-066M,2026-07-20T14:06:02.863296,14.81807509,.00910058,97.8215,110.6303,124.7371,236.2454,0,U,39427,999,67903,.15260307E-3,.1238E-4,0
GOMX-1,2013-066Q,2026-07-20T14:50:21.984000,14.69549169,.01277782,97.6465,39.9712,330.7454,28.6638,0,U,39430,999,67482,.84825669E-4,.517E-5,0
CUBEBUG-2 (LO-74),2013-066AA,2026-07-20T14:53:13.165728,14.93989557,.00555253,97.8921,150.7488,276.9661,82.5245,0,U,39440,999,68198,.18025476E-3,.1916E-4,0
NEE-02 KRYSAOR,2013-066AB,2026-07-20T09:21:51.824160,14.86751607,.00649598,97.8896,140.3724,322.0675,37.5974,0,U,39441,999,68113,.13068107E-3,.1148E-4,0
FUNCUBE-1 (AO-73),2013-066AE,2026-07-20T09:29:51.597312,15.09861960,.00380678,97.8300,173.5476,90.7809,269.7781,0,U,39444,999,68467,.27700134E-3,.4491E-4,0
UWE-3,2013-066AG,2026-07-19T19:57:16.505856,14.97218739,.00476702,97.8723,157.1335,208.5998,151.2608,0,U,39446,999,68246,.18817093E-3,.2164E-4,0
BRITE-CA1 (TORONTO),2014-033L,2026-07-20T14:26:52.484640,14.72729188,.00788895,97.9778,329.9216,168.9780,191.3179,0,U,40020,999,64713,.97032341E-4,.597E-5,0
DUCHIFAT-1,2014-033M,2026-07-20T10:55:25.717728,15.72052758,.00033996,98.0409,265.4893,227.9496,132.1476,0,U,40021,999,66096,.78793493E-3,.103989E-2,0
NANOSATC-BR1,2014-033Q,2026-07-20T01:25:54.697440,15.32422309,.00051396,98.0707,236.3841,85.0134,275.1692,0,U,40024,999,65901,.31481997E-3,.9772E-4,0
QB50P1,2014-033R,2026-07-20T11:50:15.612864,15.18713788,.00105298,98.0973,214.9866,109.2595,250.9778,0,U,40025,999,65808,.22433766E-3,.4584E-4,0
QB50P2,2014-033Y,2026-07-19T23:36:59.325408,15.15543519,.00091918,98.0770,199.9180,70.5042,289.7181,0,U,40032,999,65763,.1859428E-3,.3453E-4,0
PERSEUS-M2,2014-033AD,2026-07-20T15:35:51.429120,14.95591119,.00113375,97.9983,152.8776,181.7184,178.4000,0,U,40037,999,65578,-.16324774E-4,-.243E-5,0
PERSEUS-M1,2014-033AF,2026-07-20T08:27:40.212864,14.95724944,.00112895,97.9654,146.0332,179.4701,180.6533,0,U,40039,999,65559,.45953268E-4,.451E-5,0
